NORAD_CAT_ID,OBJECT_NAME,OBJECT_TYPE,EPOCH,MEAN_MOTION,ECCENTRICITY,INCLINATION,RA_OF_ASC_NODE,ARG_OF_PERICENTER,MEAN_ANOMALY,BSTAR,MEAN_MOTION_DOT,MEAN_MOTION_DDOT,TLE_LINE0,TLE_LINE1,TLE_LINE2,SEMIMAJOR_AXIS,PERIOD,APOGEE,PERIGEE,DECAYED
53409.0,STARLINK-4490,PAYLOAD,2023-02-02 12:36:16,15.08837879,0.0001471,53.22,142.3097,95.9993,264.1167,-1.1149e-05,-4.65e-06,0.0,0 STARLINK-4490,1 53409U 22097X   23033.52518775 -.00000465  00000-0 -11149-4 0  9999,2 53409  53.2200 142.3097 0001471  95.9993 264.1167 15.08837879 28023,6917.887,95.438,540.769,538.734,0.0
53409.0,STARLINK-4490,PAYLOAD,2023-02-02 23:43:58,15.08834045,0.0001179,53.2181,140.2229,105.5534,254.5589,-5.0135e-06,-3.68e-06,0.0,0 STARLINK-4490,1 53409U 22097X   23033.98887021 -.00000368  00000-0 -50135-5 0  9993,2 53409  53.2181 140.2229 0001179 105.5534 254.5589 15.08834045 27605,6917.899,95.438,540.579,538.948,0.0
53409.0,STARLINK-4490,PAYLOAD,2023-02-03 07:40:54,15.08829664,0.000101,53.2171,138.7383,100.4899,259.6207,-3.1179e-05,-7.84e-06,0.0,0 STARLINK-4490,1 53409U 22097X   23034.32007568 -.00000784  00000-0 -31179-4 0  9990,2 53409  53.2171 138.7383 0001010 100.4899 259.6207 15.08829664 28143,6917.912,95.438,540.476,539.078,0.0
53409.0,STARLINK-4490,PAYLOAD,2023-02-03 15:37:49,15.08838434,0.0001146,53.2175,137.2515,102.241,257.871,4.4573e-05,4.22e-06,0.0,0 STARLINK-4490,1 53409U 22097X   23034.65126953  .00000422  00000-0  44573-4 0  9995,2 53409  53.2175 137.2515 0001146 102.2410 257.8710 15.08838434 28196,6917.885,95.438,540.543,538.957,0.0
53409.0,STARLINK-4490,PAYLOAD,2023-02-04 07:31:41,15.08836011,0.000127,53.2174,134.2784,97.0589,263.0547,0.00014028,1.945e-05,0.0,0 STARLINK-4490,1 53409U 22097X   23035.31367196  .00001945  00000-0  14028-3 0  9997,2 53409  53.2174 134.2784 0001270  97.0589 263.0547 15.08836011 27809,6917.893,95.438,540.636,538.879,0.0
53409.0,STARLINK-4490,PAYLOAD,2023-02-04 13:53:13,15.0884698,0.0001293,53.2195,133.0896,102.4016,257.7121,0.00017683,2.528e-05,0.0,0 STARLINK-4490,1 53409U 22097X   23035.57862535  .00002528  00000-0  17683-3 0  9990,2 53409  53.2195 133.0896 0001293 102.4016 257.7121 15.08846980 27842,6917.859,95.437,540.619,538.83,0.0
53409.0,STARLINK-4490,PAYLOAD,2023-02-05 05:47:05,15.08831532,0.0001352,53.2169,130.1163,92.4587,267.656,7.0473e-05,8.34e-06,0.0,0 STARLINK-4490,1 53409U 22097X   23036.24103672  .00000834  00000-0  70473-4 0  9990,2 53409  53.2169 130.1163 0001352  92.4587 267.6560 15.08831532 27940,6917.906,95.438,540.707,538.836,0.0
53409.0,STARLINK-4490,PAYLOAD,2023-02-05 13:44:01,15.08837427,0.0001341,53.2192,128.6296,93.7182,266.3963,6.6327e-05,7.68e-06,0.0,0 STARLINK-4490,1 53409U 22097X   23036.57223823  .00000768  00000-0  66327-4 0  9996,2 53409  53.2192 128.6296 0001341  93.7182 266.3963 15.08837427 28480,6917.888,95.438,540.681,538.826,0.0
53409.0,STARLINK-4490,PAYLOAD,2023-02-06 10:24:01,15.08846161,0.0001463,53.2184,124.7644,84.3247,275.7912,0.00018366,2.637e-05,0.0,0 STARLINK-4490,1 53409U 22097X   23037.43335494  .00002637  00000-0  18366-3 0  9996,2 53409  53.2184 124.7644 0001463  84.3247 275.7912 15.08846161 28122,6917.862,95.437,540.739,538.714,0.0
53409.0,STARLINK-4490,PAYLOAD,2023-02-06 11:59:24,15.08850356,0.0001512,53.2182,124.4668,86.6589,273.4576,0.00021573,3.148e-05,0.0,0 STARLINK-4490,1 53409U 22097X   23037.49959274  .00003148  00000-0  21573-3 0  9992,2 53409  53.2182 124.4668 0001512  86.6589 273.4576 15.08850356 28629,6917.849,95.437,540.76,538.668,0.0
53409.0,STARLINK-4490,PAYLOAD,2023-02-06 15:10:10,15.08855414,0.0001306,53.2164,123.8704,89.3437,270.7704,0.00026197,3.886e-05,0.0,0 STARLINK-4490,1 53409U 22097X   23037.63206837  .00003886  00000-0  26197-3 0  9994,2 53409  53.2164 123.8704 0001306  89.3437 270.7704 15.08855414 28157,6917.833,95.437,540.602,538.795,0.0
53409.0,STARLINK-4490,PAYLOAD,2023-02-07 05:28:38,15.08853373,0.0001445,53.2149,121.1941,95.359,264.7567,0.00041389,6.308e-05,0.0,0 STARLINK-4490,1 53409U 22097X   23038.22822902  .00006308  00000-0  41389-3 0  9999,2 53409  53.2149 121.1941 0001445  95.3590 264.7567 15.08853373 28247,6917.84,95.437,540.704,538.705,0.0
53409.0,STARLINK-4490,PAYLOAD,2023-02-07 11:50:11,15.08867316,0.0001443,53.2165,120.0061,89.9501,270.1656,0.00060266,9.323e-05,0.0,0 STARLINK-4490,1 53409U 22097X   23038.49318293  .00009323  00000-0  60266-3 0  9996,2 53409  53.2165 120.0061 0001443  89.9501 270.1656 15.08867316 28775,6917.797,95.436,540.66,538.664,0.0
53409.0,STARLINK-4490,PAYLOAD,2023-02-08 08:30:11,15.08846211,9.81e-05,53.2151,116.1395,91.9056,268.2048,1.5736e-05,-3.7e-07,0.0,0 STARLINK-4490,1 53409U 22097X   23039.35430277 -.00000037  00000-0  15736-4 0  9996,2 53409  53.2151 116.1395 0000981  91.9056 268.2048 15.08846211 28415,6917.861,95.437,540.405,539.048,0.0
53409.0,STARLINK-4490,PAYLOAD,2023-02-08 11:40:57,15.08850436,0.000122,53.2173,115.5443,118.085,242.0266,6.9415e-05,8.17e-06,0.0,0 STARLINK-4490,1 53409U 22097X   23039.48678019  .00000817  00000-0  69415-4 0  9996,2 53409  53.2173 115.5443 0001220 118.0850 242.0266 15.08850436 28928,6917.848,95.437,540.557,538.87,0.0
53409.0,STARLINK-4490,PAYLOAD,2023-02-09 05:10:12,15.08834789,0.0001033,53.2165,112.2739,90.967,269.144,0.000193,2.785e-05,0.0,0 STARLINK-4490,1 53409U 22097X   23040.21542804  .00002785  00000-0  19300-3 0  9994,2 53409  53.2165 112.2739 0001033  90.9670 269.1440 15.08834789 28546,6917.896,95.438,540.476,539.047,0.0
53409.0,STARLINK-4490,PAYLOAD,2023-02-09 09:56:22,15.08834547,9.05e-05,53.2167,111.3809,94.838,265.2715,0.00025375,3.752e-05,0.0,0 STARLINK-4490,1 53409U 22097X   23040.41414985  .00003752  00000-0  25375-3 0  9998,2 53409  53.2167 111.3809 0000905  94.8380 265.2715 15.08834547 29066,6917.897,95.438,540.388,539.136,0.0
53409.0,STARLINK-4490,PAYLOAD,2023-02-09 21:04:04,15.08831267,9.93e-05,53.2174,109.3,95.0833,265.0272,0.00021655,3.159e-05,0.0,0 STARLINK-4490,1 53409U 22097X   23040.87783424  .00003159  00000-0  21655-3 0  9993,2 53409  53.2174 109.3000 0000993  95.0833 265.0272 15.08831267 29137,6917.907,95.438,540.459,539.085,0.0
53409.0,STARLINK-4490,PAYLOAD,2023-02-10 03:25:37,15.08827579,0.0001138,53.2175,108.1115,98.4629,261.6492,5.7885e-05,6.33e-06,0.0,0 STARLINK-4490,1 53409U 22097X   23041.14279827  .00000633  00000-0  57885-4 0  9990,2 53409  53.2175 108.1115 0001138  98.4629 261.6492 15.08827579 29175,6917.918,95.438,540.571,538.996,0.0
53409.0,STARLINK-4490,PAYLOAD,2023-02-10 20:54:52,15.08839548,8.95e-05,53.2165,104.8397,99.7032,260.4061,0.00023258,3.416e-05,0.0,0 STARLINK-4490,1 53409U 22097X   23041.87143532  .00003416  00000-0  23258-3 0  9991,2 53409  53.2165 104.8397 0000895  99.7032 260.4061 15.08839548 29280,6917.882,95.438,540.366,539.128,0.0
53409.0,STARLINK-4490,PAYLOAD,2023-02-11 11:13:20,15.08837337,0.0001412,53.218,102.1638,91.2043,268.9111,0.00016256,2.3e-05,0.0,0 STARLINK-4490,1 53409U 22097X   23042.46760113  .00002300  00000-0  16256-3 0  9998,2 53409  53.2180 102.1638 0001412  91.2043 268.9111 15.08837337 28889,6917.889,95.438,540.73,538.777,0.0
53409.0,STARLINK-4490,PAYLOAD,2023-02-12 12:39:29,15.08864721,0.0001278,53.217,97.4028,101.3671,258.7465,0.00032357,4.869e-05,0.0,0 STARLINK-4490,1 53409U 22097X   23043.52742690  .00004869  00000-0  32357-3 0  9998,2 53409  53.2170  97.4028 0001278 101.3671 258.7465 15.08864721 29042,6917.805,95.436,540.554,538.786,0.0
53409.0,STARLINK-4490,PAYLOAD,2023-02-12 20:36:26,15.08843573,9.09e-05,53.2185,95.9212,106.6522,253.457,9.8517e-05,1.281e-05,0.0,0 STARLINK-4490,1 53409U 22097X   23043.85863471  .00001281  00000-0  98517-4 0  9991,2 53409  53.2185  95.9212 0000909 106.6522 253.4570 15.08843573 29095,6917.869,95.437,540.363,539.106,0.0
53409.0,STARLINK-4490,PAYLOAD,2023-02-13 04:33:22,15.08830774,0.0001354,53.2175,94.4334,97.7049,262.4097,-6e-05,-1.242e-05,0.0,0 STARLINK-4490,1 53409U 22097X   23044.18984480 -.00001242  00000-0 -60000-4 0  9997,2 53409  53.2175  94.4334 0001354  97.7049 262.4097 15.08830774 29141,6917.909,95.438,540.71,538.837,0.0
53409.0,STARLINK-4490,PAYLOAD,2023-02-13 10:54:54,15.08841423,0.0001423,53.2178,93.2432,106.5702,253.5447,-4.9684e-05,-1.079e-05,0.0,0 STARLINK-4490,1 53409U 22097X   23044.45479814 -.00001079  00000-0 -49684-4 0  9990,2 53409  53.2178  93.2432 0001423 106.5702 253.5447 15.08841423 29189,6917.876,95.437,540.725,538.757,0.0
53409.0,STARLINK-4490,PAYLOAD,2023-02-14 12:21:04,15.08844437,0.0001264,53.2171,88.4842,96.8508,263.2628,0.00019368,2.796e-05,0.0,0 STARLINK-4490,1 53409U 22097X   23045.51464091  .00002796  00000-0  19368-3 0  9999,2 53409  53.2171  88.4842 0001264  96.8508 263.2628 15.08844437 29830,6917.867,95.437,540.606,538.857,0.0
53409.0,STARLINK-4490,PAYLOAD,2023-02-15 05:50:19,15.08841454,0.0001251,53.2165,85.2139,89.3476,270.766,0.00036817,5.577e-05,0.0,0 STARLINK-4490,1 53409U 22097X   23046.24328694  .00005577  00000-0  36817-3 0  9996,2 53409  53.2165  85.2139 0001251  89.3476 270.7660 15.08841454 29457,6917.876,95.437,540.606,538.876,0.0
53409.0,STARLINK-4490,PAYLOAD,2023-02-15 09:01:06,15.0885163,0.0001337,53.2168,84.6194,89.1088,271.0057,0.00072877,0.00011333,0.0,0 STARLINK-4490,1 53409U 22097X   23046.37576596  .00011333  00000-0  72877-3 0  9999,2 53409  53.2168  84.6194 0001337  89.1088 271.0057 15.08851630 29963,6917.845,95.437,540.635,538.785,0.0
53409.0,STARLINK-4490,PAYLOAD,2023-02-16 08:51:52,15.08876561,0.0001226,53.2174,80.1585,89.9447,270.1685,0.0010518,0.00016508,0.0,0 STARLINK-4490,1 53409U 22097X   23047.36935265  .00016508  00000-0  10518-2 0  9993,2 53409  53.2174  80.1585 0001226  89.9447 270.1685 15.08876561 29629,6917.769,95.435,540.482,538.786,0.0
53409.0,STARLINK-4490,PAYLOAD,2023-02-17 13:28:50,15.08818836,7.61e-05,53.2174,74.8062,86.2882,273.8198,7.1701e-05,8.53e-06,0.0,0 STARLINK-4490,1 53409U 22097X   23048.56169177  .00000853  00000-0  71701-4 0  9996,2 53409  53.2174  74.8062 0000761  86.2882 273.8198 15.08818836 29805,6917.945,95.439,540.337,539.284,0.0
